{"type": "FeatureCollection", "features": [ {"type": "Feature", "properties": {"norad_id": 33825, "name": "COSMOS 2251 DEB", "group": "cosmos-2251-debris", "lat": 64.58414037361457, "lon": -171.33916487839147, "alt_km": 659.9726613913444, "timestamp": "2025-12-03T10:52:57.848772+00:00", "meta": {"OBJECT_NAME": "COSMOS 2251 DEB", "OBJECT_ID": "1993-036BS", "EPOCH": "2025-12-03T03:58:28.829280", "MEAN_MOTION": 14.69621735, "ECCENTRICITY": 0.0084083, "INCLINATION": 73.9862, "RA_OF_ASC_NODE": 46.4061, "ARG_OF_PERICENTER": 15.8794, "MEAN_ANOMALY": 10.9095, "EPHEMERIS_TYPE": 0, "CLASSIFICATION_TYPE": "U", "NORAD_CAT_ID": 33825, "ELEMENT_SET_NO": 999, "REV_AT_EPOCH": 88739, "BSTAR": 0.0010715, "MEAN_MOTION_DOT": 6.699e-05, "MEAN_MOTION_DDOT": 0}, "tle": {"line1": "1 33825U 93036BS  25337.16561145  .00006699  00000+0  10715-2 0  9996", "line2": "2 33825  73.9862  46.4061 0084083  15.8794  10.9095 14.69621735887399"}}, "geometry": {"type": "Point", "coordinates": [-171.33916487839147, 64.58414037361457]}}, {"type": "Feature", "properties": {"norad_id": 33826, "name": "COSMOS 2251 DEB", "group": "cosmos-2251-debris", "lat": -58.54736962285234, "lon": -84.8220414411664, "alt_km": 763.7824860740184, "timestamp": "2025-12-03T10:52:57.848783+00:00", "meta": {"OBJECT_NAME": "COSMOS 2251 DEB", "OBJECT_ID": "1993-036BT", "EPOCH": "2025-12-03T04:53:12.278112", "MEAN_MOTION": 14.5155646, "ECCENTRICITY": 0.0084391, "INCLINATION": 74.0654, "RA_OF_ASC_NODE": 67.8022, "ARG_OF_PERICENTER": 115.1264, "MEAN_ANOMALY": 261.5769, "EPHEMERIS_TYPE": 0, "CLASSIFICATION_TYPE": "U", "NORAD_CAT_ID": 33826, "ELEMENT_SET_NO": 999, "REV_AT_EPOCH": 87631, "BSTAR": 0.0021048, "MEAN_MOTION_DOT": 8.806e-05, "MEAN_MOTION_DDOT": 0}, "tle": {"line1": "1 33826U 93036BT  25337.20361433  .00008806  00000+0  21048-2 0  9993", "line2": "2 33826  74.0654  67.8022 0084391 115.1264 261.5769 14.51556460876318"}}, "geometry": {"type": "Point", "coordinates": [-84.8220414411664, -58.54736962285234]}}, {"type": "Feature", "properties": {"norad_id": 33828, "name": "COSMOS 2251 DEB", "group": "cosmos-2251-debris", "lat": 22.739986997149693, "lon": -97.7574391038663, "alt_km": 731.3754281717047, "timestamp": "2025-12-03T10:52:57.848795+00:00", "meta": {"OBJECT_NAME": "COSMOS 2251 DEB", "OBJECT_ID": "1993-036BV", "EPOCH": "2025-12-03T04:27:28.280736", "MEAN_MOTION": 14.4427696, "ECCENTRICITY": 0.0029318, "INCLINATION": 74.0475, "RA_OF_ASC_NODE": 255.8546, "ARG_OF_PERICENTER": 330.2883, "MEAN_ANOMALY": 101.9162, "EPHEMERIS_TYPE": 0, "CLASSIFICATION_TYPE": "U", "NORAD_CAT_ID": 33828, "ELEMENT_SET_NO": 999, "REV_AT_EPOCH": 88175, "BSTAR": 0.00074799, "MEAN_MOTION_DOT": 2.559e-05, "MEAN_MOTION_DDOT": 0}, "tle": {"line1": "1 33828U 93036BV  25337.18574399  .00002559  00000+0  74799-3 0  9990", "line2": "2 33828  74.0475 255.8546 0029318 330.2883 101.9162 14.44276960881750"}}, "geometry": {"type": "Point", "coordinates": [-97.7574391038663, 22.739986997149693]}}, {"type": "Feature", "properties": {"norad_id": 33830, "name": "COSMOS 2251 DEB", "group": "cosmos-2251-debris", "lat": -66.65784633849081, "lon": 110.13284105964952, "alt_km": 660.4309532821808, "timestamp": "2025-12-03T10:52:57.848806+00:00", "meta": {"OBJECT_NAME": "COSMOS 2251 DEB", "OBJECT_ID": "1993-036BX", "EPOCH": "2025-12-03T03:44:15.155808", "MEAN_MOTION": 14.76685892, "ECCENTRICITY": 0.0042161, "INCLINATION": 74.0333, "RA_OF_ASC_NODE": 249.152, "ARG_OF_PERICENTER": 11.2884, "MEAN_ANOMALY": 99.8325, "EPHEMERIS_TYPE": 0, "CLASSIFICATION_TYPE": "U", "NORAD_CAT_ID": 33830, "ELEMENT_SET_NO": 999, "REV_AT_EPOCH": 89330, "BSTAR": 0.0014285, "MEAN_MOTION_DOT": 0.00010124, "MEAN_MOTION_DDOT": 0}, "tle": {"line1": "1 33830U 93036BX  25337.15573097  .00010124  00000+0  14285-2 0  9994", "line2": "2 33830  74.0333 249.1520 0042161  11.2884  99.8325 14.76685892893305"}}, "geometry": {"type": "Point", "coordinates": [110.13284105964952, -66.65784633849081]}}, {"type": "Feature", "properties": {"norad_id": 33832, "name": "COSMOS 2251 DEB", "group": "cosmos-2251-debris", "lat": 51.12995247603483, "lon": 26.91558453170605, "alt_km": 699.4159447879738, "timestamp": "2025-12-03T10:52:57.848817+00:00", "meta": {"OBJECT_NAME": "COSMOS 2251 DEB", "OBJECT_ID": "1993-036BZ", "EPOCH": "2025-12-03T04:18:15.312096", "MEAN_MOTION": 14.60442205, "ECCENTRICITY": 0.0025676, "INCLINATION": 74.0553, "RA_OF_ASC_NODE": 228.2124, "ARG_OF_PERICENTER": 261.1864, "MEAN_ANOMALY": 224.3544, "EPHEMERIS_TYPE": 0, "CLASSIFICATION_TYPE": "U", "NORAD_CAT_ID": 33832, "ELEMENT_SET_NO": 999, "REV_AT_EPOCH": 88285, "BSTAR": 0.0018726, "MEAN_MOTION_DOT": 9.098e-05, "MEAN_MOTION_DDOT": 0}, "tle": {"line1": "1 33832U 93036BZ  25337.17934389  .00009098  00000+0  18726-2 0  9995", "line2": "2 33832  74.0553 228.2124 0025676 261.1864 224.3544 14.60442205882853"}}, "geometry": {"type": "Point", "coordinates": [26.91558453170605, 51.12995247603483]}}, {"type": "Feature", "properties": {"norad_id": 33835, "name": "COSMOS 2251 DEB", "group": "cosmos-2251-debris", "lat": -73.94296136908558, "lon": 22.217756807727987, "alt_km": 695.4544948688053, "timestamp": "2025-12-03T10:52:57.848828+00:00", "meta": {"OBJECT_NAME": "COSMOS 2251 DEB", "OBJECT_ID": "1993-036CC", "EPOCH": "2025-12-02T19:28:26.300064", "MEAN_MOTION": 14.62061225, "ECCENTRICITY": 0.0055721, "INCLINATION": 74.0555, "RA_OF_ASC_NODE": 120.095, "ARG_OF_PERICENTER": 176.3218, "MEAN_ANOMALY": 313.2995, "EPHEMERIS_TYPE": 0, "CLASSIFICATION_TYPE": "U", "NORAD_CAT_ID": 33835, "ELEMENT_SET_NO": 999, "REV_AT_EPOCH": 88644, "BSTAR": 0.0016116, "MEAN_MOTION_DOT": 8.252e-05, "MEAN_MOTION_DDOT": 0}, "tle": {"line1": "1 33835U 93036CC  25336.81141551  .00008252  00000+0  16116-2 0  9991", "line2": "2 33835  74.0555 120.0950 0055721 176.3218 313.2995 14.62061225886446"}}, "geometry": {"type": "Point", "coordinates": [22.217756807727987, -73.94296136908558]}}, {"type": "Feature", "properties": {"norad_id": 33836, "name": "COSMOS 2251 DEB", "group": "cosmos-2251-debris", "lat": 66.63461327911659, "lon": -41.10194804549091, "alt_km": 617.0062594087212, "timestamp": "2025-12-03T10:52:57.848839+00:00", "meta": {"OBJECT_NAME": "COSMOS 2251 DEB", "OBJECT_ID": "1993-036CD", "EPOCH": "2025-12-03T04:20:54.154176", "MEAN_MOTION": 14.79306883, "ECCENTRICITY": 0.0022421, "INCLINATION": 73.9973, "RA_OF_ASC_NODE": 277.8066, "ARG_OF_PERICENTER": 134.4494, "MEAN_ANOMALY": 289.2155, "EPHEMERIS_TYPE": 0, "CLASSIFICATION_TYPE": "U", "NORAD_CAT_ID": 33836, "ELEMENT_SET_NO": 999, "REV_AT_EPOCH": 63947, "BSTAR": 0.0018511, "MEAN_MOTION_DOT": 0.0001383, "MEAN_MOTION_DDOT": 0}, "tle": {"line1": "1 33836U 93036CD  25337.18118234  .00013830  00000+0  18511-2 0  9994", "line2": "2 33836  73.9973 277.8066 0022421 134.4494 289.2155 14.79306883639479"}}, "geometry": {"type": "Point", "coordinates": [-41.10194804549091, 66.63461327911659]}}, {"type": "Feature", "properties": {"norad_id": 33837, "name": "COSMOS 2251 DEB", "group": "cosmos-2251-debris", "lat": -61.80241506721628, "lon": 40.75432690980118, "alt_km": 705.0122959910605, "timestamp": "2025-12-03T10:52:57.848849+00:00", "meta": {"OBJECT_NAME": "COSMOS 2251 DEB", "OBJECT_ID": "1993-036CE", "EPOCH": "2025-12-02T23:36:04.521024", "MEAN_MOTION": 14.50665331, "ECCENTRICITY": 0.0035629, "INCLINATION": 74.0127, "RA_OF_ASC_NODE": 73.9648, "ARG_OF_PERICENTER": 297.3027, "MEAN_ANOMALY": 62.4507, "EPHEMERIS_TYPE": 0, "CLASSIFICATION_TYPE": "U", "NORAD_CAT_ID": 33837, "ELEMENT_SET_NO": 999, "REV_AT_EPOCH": 88654, "BSTAR": 0.00038597, "MEAN_MOTION_DOT": 1.5e-05, "MEAN_MOTION_DDOT": 0}, "tle": {"line1": "1 33837U 93036CE  25336.98338566  .00001500  00000+0  38597-3 0  9992", "line2": "2 33837  74.0127  73.9648 0035629 297.3027  62.4507 14.50665331886548"}}, "geometry": {"type": "Point", "coordinates": [40.75432690980118, -61.80241506721628]}}, {"type": "Feature", "properties": {"norad_id": 33838, "name": "COSMOS 2251 DEB", "group": "cosmos-2251-debris", "lat": -60.00589439755307, "lon": 16.935125314759382, "alt_km": 724.4004779110701, "timestamp": "2025-12-03T10:52:57.848860+00:00", "meta": {"OBJECT_NAME": "COSMOS 2251 DEB", "OBJECT_ID": "1993-036CF", "EPOCH": "2025-12-02T22:40:07.715136", "MEAN_MOTION": 14.48315324, "ECCENTRICITY": 0.0027379, "INCLINATION": 74.0356, "RA_OF_ASC_NODE": 168.1564, "ARG_OF_PERICENTER": 291.3492, "MEAN_ANOMALY": 180.7284, "EPHEMERIS_TYPE": 0, "CLASSIFICATION_TYPE": "U", "NORAD_CAT_ID": 33838, "ELEMENT_SET_NO": 999, "REV_AT_EPOCH": 88427, "BSTAR": 0.00048404, "MEAN_MOTION_DOT": 1.791e-05, "MEAN_MOTION_DDOT": 0}, "tle": {"line1": "1 33838U 93036CF  25336.94453374  .00001791  00000+0  48404-3 0  9994", "line2": "2 33838  74.0356 168.1564 0027379 291.3492 180.7284 14.48315324884275"}}, "geometry": {"type": "Point", "coordinates": [16.935125314759382, -60.00589439755307]}}, {"type": "Feature", "properties": {"norad_id": 33839, "name": "COSMOS 2251 DEB", "group": "cosmos-2251-debris", "lat": -5.076808010629491, "lon": -137.13441684846475, "alt_km": 624.8562357275032, "timestamp": "2025-12-03T10:52:57.848870+00:00", "meta": {"OBJECT_NAME": "COSMOS 2251 DEB", "OBJECT_ID": "1993-036CG", "EPOCH": "2025-12-03T03:25:22.042272", "MEAN_MOTION": 14.64373974, "ECCENTRICITY": 0.0084822, "INCLINATION": 74.0399, "RA_OF_ASC_NODE": 224.9194, "ARG_OF_PERICENTER": 339.2319, "MEAN_ANOMALY": 177.3871, "EPHEMERIS_TYPE": 0, "CLASSIFICATION_TYPE": "U", "NORAD_CAT_ID": 33839, "ELEMENT_SET_NO": 999, "REV_AT_EPOCH": 89439, "BSTAR": 0.00040045, "MEAN_MOTION_DOT": 2.197e-05, "MEAN_MOTION_DDOT": 0}, "tle": {"line1": "1 33839U 93036CG  25337.14261623  .00002197  00000+0  40045-3 0  9996", "line2": "2 33839  74.0399 224.9194 0084822 339.2319 177.3871 14.64373974894390"}}, "geometry": {"type": "Point", "coordinates": [-137.13441684846475, -5.076808010629491]}}]}